[{"OBJECT_NAME":"STARLINK-32233","OBJECT_ID":"2024-144K","EPOCH":"2026-03-09T15:33:47.498688","MEAN_MOTION":15.30199541,"ECCENTRICITY":9.33e-5,"INCLINATION":53.1585,"RA_OF_ASC_NODE":217.2608,"ARG_OF_PERICENTER":114.1263,"MEAN_ANOMALY":245.9835,"EPHEMERIS_TYPE":0,"CLASSIFICATION_TYPE":"U","NORAD_CAT_ID":60434,"ELEMENT_SET_NO":999,"REV_AT_EPOCH":8930,"BSTAR":-9.16e-5,"MEAN_MOTION_DOT":-3.071e-5,"MEAN_MOTION_DDOT":0},{"OBJECT_NAME":"FENGYUN 1C DEB","OBJECT_ID":"1999-025ETT","EPOCH":"2026-03-07T08:30:03.670560","MEAN_MOTION":15.28888299,"ECCENTRICITY":0.00158464,"INCLINATION":99.1103,"RA_OF_ASC_NODE":112.0072,"ARG_OF_PERICENTER":201.0032,"MEAN_ANOMALY":159.0553,"EPHEMERIS_TYPE":0,"CLASSIFICATION_TYPE":"U","NORAD_CAT_ID":38726,"ELEMENT_SET_NO":999,"REV_AT_EPOCH":71135,"BSTAR":0.013792546,"MEAN_MOTION_DOT":0.00409659,"MEAN_MOTION_DDOT":0}]
